GLOBALSTAR M068         
1 32266U 07048D   24120.45612646 -.00000065  00000+0  21319-3 0  9991
2 32266  51.9860 123.4073 0000844 316.8554 207.9117 12.62786743765289
GLOBALSTAR M079         
1 37188U 10054A   24120.50990164 -.00000080  00000+0  13068-3 0  9999
2 37188  52.0045 319.0870 0001058  99.9987 276.7120 12.62269076624219
GLOBALSTAR M074         
1 37189U 10054B   24120.33285079 -.00000078  00000+0  14284-3 0  9991
2 37189  52.0026 319.0133 0000782  95.5923  75.4995 12.62267890624795
GLOBALSTAR M076         
1 37190U 10054C   24120.28116215 -.00000067  00000+0  20733-3 0  9996
2 37190  52.0037 319.3024 0001012 126.0891  51.2059 12.62277680624502
GLOBALSTAR M077         
1 37191U 10054D   24120.47447956 -.00000081  00000+0  12734-3 0  9995
2 37191  52.0068 275.4516 0000678 118.9626 276.0358 12.62272183624904
GLOBALSTAR M075         
1 37192U 10054E   24120.45144205 -.00000080  00000+0  13447-3 0  9996
2 37192  51.9971   1.2717 0000881  82.3903  88.3303 12.62273262623757
GLOBALSTAR M073         
1 37193U 10054F   24120.58909997 -.00000085  00000+0  10409-3 0  9998
2 37193  52.0057 274.3559 0000817 119.2278 317.0467 12.62264431625603
GLOBALSTAR M083         
1 37739U 11033A   24120.58823840 -.00000071  00000+0  18495-3 0  9992
2 37739  51.9853 223.6542 0000549 100.2095 273.0023 12.62269529594628
GLOBALSTAR M088         
1 37740U 11033B   24120.51708597 -.00000099  00000+0  25532-4 0  9999
2 37740  51.9706 129.7089 0000418  66.2574 103.9832 12.62267728590159
GLOBALSTAR M091         
1 37741U 11033C   24120.17896978 -.00000104  00000+0 -23754-5 0  9996
2 37741  51.9986  93.5520 0000680  52.3570 320.2735 12.62261988590902
GLOBALSTAR M085         
1 37742U 11033D   24120.51755720 -.00000086  00000+0  10189-3 0  9998
2 37742  51.9888  43.9262 0000886  63.4395 108.6297 12.62270096591454
GLOBALSTAR M081         
1 37743U 11033E   24120.54386097 -.00000087  00000+0  95858-4 0  9997
2 37743  51.9975  46.3776 0000920  75.4962  96.0346 12.62271198591607
GLOBALSTAR M089         
1 37744U 11033F   24120.42557772 -.00000073  00000+0  17287-3 0  9999
2 37744  51.9954   1.0477 0000725 111.1348  61.4983 12.62262821592438
GLOBALSTAR M084         
1 38040U 11080A   24120.56176535 -.00000070  00000+0  18684-3 0  9999
2 38040  52.0003 227.6982 0000617 154.0671 219.5369 12.62274132570435
GLOBALSTAR M080         
1 38041U 11080B   24120.61484089 -.00000074  00000+0  16725-3 0  9990
2 38041  52.0057 229.0001 0000840 154.9305 218.7099 12.62271893570560
GLOBALSTAR M082         
1 38042U 11080C   24120.46964757 -.00000077  00000+0  14695-3 0  9996
2 38042  52.0062 184.8462 0000485  37.8533 335.3594 12.62268953571259
GLOBALSTAR M092         
1 38043U 11080D   24120.61602369 -.00000057  00000+0  26334-3 0  9993
2 38043  52.0081 274.7521 0000521 120.6549 319.3004 12.62279552569729
GLOBALSTAR M090         
1 38044U 11080E   24120.41673677 -.00000078  00000+0  14120-3 0  9995
2 38044  51.9871 179.3474 0000364  73.1791 300.5014 12.62262590571368
GLOBALSTAR M086         
1 38045U 11080F   24120.44304133 -.00000086  00000+0  97066-4 0  9997
2 38045  51.9882 179.7863 0001254 123.9082 249.2026 12.62270298571314
GLOBALSTAR M097         
1 39072U 13005A   24120.38770398 -.00000111  00000+0 -42550-4 0  9998
2 39072  52.0035  94.0796 0000640  66.7554 293.3380 12.62262607518552
GLOBALSTAR M093         
1 39073U 13005B   24120.59861912 -.00000099  00000+0  27184-4 0  9995
2 39073  51.9803  87.4009 0000777  63.4680 296.6266 12.62263610518534
GLOBALSTAR M094         
1 39074U 13005C   24120.36110720 -.00000079  00000+0  13980-3 0  9991
2 39074  51.9984   2.0953 0001017  80.8593 279.2389 12.62265046520115
GLOBALSTAR M096         
1 39075U 13005D   24120.53258073 -.00000087  00000+0  95130-4 0  9992
2 39075  52.0090  49.7617 0000952  65.4856 294.6109 12.62264768519400
GLOBALSTAR M078         
1 39076U 13005E   24120.42757238 -.00000107  00000+0 -15616-4 0  9993
2 39076  51.9843 135.1600 0000974   1.1075 358.9794 12.62268460517664
GLOBALSTAR M095         
1 39077U 13005F   24120.29478393 -.00000105  00000+0 -59641-5 0  9996
2 39077  51.9775 132.9610 0000798  34.3767 325.7150 12.62265829517502
GLOBALSTAR M087         
1 52888U 22064A   24120.46420492 -.00000076  00000+0  99954-4 0  9998
2 52888  51.9779  18.2750 0008709 239.4453 120.5588 13.37571601 91001
